NORAD_CAT_ID,OBJECT_NAME,OBJECT_TYPE,EPOCH,MEAN_MOTION,ECCENTRICITY,INCLINATION,RA_OF_ASC_NODE,ARG_OF_PERICENTER,MEAN_ANOMALY,BSTAR,MEAN_MOTION_DOT,MEAN_MOTION_DDOT,TLE_LINE0,TLE_LINE1,TLE_LINE2,SEMIMAJOR_AXIS,PERIOD,APOGEE,PERIGEE,DECAYED
52830.0,STARLINK-4091,PAYLOAD,2024-04-01 19:16:16,15.0884015,7.35e-05,53.2168,327.6519,93.9314,266.1762,3.1705e-05,2.17e-06,0.0,0 STARLINK-4091,1 52830U 22062A   24092.80296533  .00000217  00000-0  31705-4 0  9993,2 52830  53.2168 327.6519 0000735  93.9314 266.1762 15.08840150 99574,6917.88,95.438,540.253,539.236,0.0
52830.0,STARLINK-4091,PAYLOAD,2024-04-01 22:27:02,15.08851323,7.63e-05,53.216,327.0584,106.5958,253.5118,0.00024199,3.567e-05,0.0,0 STARLINK-4091,1 52830U 22062A   24092.93544066  .00003567  00000-0  24199-3 0  9993,2 52830  53.2160 327.0584 0000763 106.5958 253.5118 15.08851323 99599,6917.846,95.437,540.239,539.183,0.0
52830.0,STARLINK-4091,PAYLOAD,2024-04-02 07:59:21,15.08840377,5.87e-05,53.2177,325.2737,98.1933,261.9126,-3.5643e-07,-2.93e-06,0.0,0 STARLINK-4091,1 52830U 22062A   24093.33288363 -.00000293  00000-0 -35643-6 0  9997,2 52830  53.2177 325.2737 0000587  98.1933 261.9126 15.08840377 99656,6917.879,95.438,540.15,539.338,0.0
52830.0,STARLINK-4091,PAYLOAD,2024-04-02 22:17:49,15.08838248,6.69e-05,53.2167,322.6002,105.0947,255.012,-6.1322e-05,-1.263e-05,0.0,0 STARLINK-4091,1 52830U 22062A   24093.92904697 -.00001263  00000-0 -61322-4 0  9996,2 52830  53.2167 322.6002 0000669 105.0947 255.0120 15.08838248 99231,6917.886,95.438,540.214,539.288,0.0
52830.0,STARLINK-4091,PAYLOAD,2024-04-03 07:50:08,15.08839147,7.36e-05,53.2174,320.8162,106.5315,253.5758,-8.318e-06,-4.2e-06,0.0,0 STARLINK-4091,1 52830U 22062A   24094.32648760 -.00000420  00000-0 -83180-5 0  9998,2 52830  53.2174 320.8162 0000736 106.5315 253.5758 15.08839147 99291,6917.883,95.438,540.257,539.239,0.0
52830.0,STARLINK-4091,PAYLOAD,2024-04-03 18:57:50,15.0883512,4.86e-05,53.2159,318.733,102.6635,257.4411,0.00012046,1.63e-05,0.0,0 STARLINK-4091,1 52830U 22062A   24094.79017232  .00001630  00000-0  12046-3 0  9996,2 52830  53.2159 318.7330 0000486 102.6635 257.4411 15.08835120 99871,6917.895,95.438,540.097,539.424,0.0
52830.0,STARLINK-4091,PAYLOAD,2024-04-03 22:08:37,15.08838569,4.72e-05,53.2157,318.1377,106.4097,253.6947,0.00015163,2.126e-05,0.0,0 STARLINK-4091,1 52830U 22062A   24094.92265070  .00002126  00000-0  15163-3 0  9990,2 52830  53.2157 318.1377 0000472 106.4097 253.6947 15.08838569 99381,6917.885,95.438,540.076,539.423,0.0
52830.0,STARLINK-4091,PAYLOAD,2024-04-04 07:40:55,15.08842699,4.8e-05,53.2154,316.3532,91.6468,268.4579,3.7416e-05,3.08e-06,0.0,0 STARLINK-4091,1 52830U 22062A   24095.32008870  .00000308  00000-0  37416-4 0  9994,2 52830  53.2154 316.3532 0000480  91.6468 268.4579 15.08842699 99448,6917.872,95.437,540.069,539.405,0.0
52830.0,STARLINK-4091,PAYLOAD,2024-04-04 20:24:01,15.08839588,6.83e-05,53.2168,313.9757,98.7691,261.3379,0.00011556,1.552e-05,0.0,0 STARLINK-4091,1 52830U 22062A   24095.85001303  .00001552  00000-0  11556-3 0  9994,2 52830  53.2168 313.9757 0000683  98.7691 261.3379 15.08839588100037,6917.882,95.438,540.219,539.274,0.0
52830.0,STARLINK-4091,PAYLOAD,2024-04-04 21:59:24,15.08840496,6.63e-05,53.2167,313.6781,96.2384,263.8684,0.00012247,1.662e-05,0.0,0 STARLINK-4091,1 52830U 22062A   24095.91625262  .00001662  00000-0  12247-3 0  9997,2 52830  53.2167 313.6781 0000663  96.2384 263.8684 15.08840496 99538,6917.879,95.438,540.203,539.285,0.0
52830.0,STARLINK-4091,PAYLOAD,2024-04-05 07:31:42,15.08844384,6.48e-05,53.2166,311.8934,85.9985,274.1081,0.00015261,2.142e-05,0.0,0 STARLINK-4091,1 52830U 22062A   24096.31369057  .00002142  00000-0  15261-3 0  9992,2 52830  53.2166 311.8934 0000648  85.9985 274.1081 15.08844384 99594,6917.867,95.437,540.18,539.284,0.0
52830.0,STARLINK-4091,PAYLOAD,2024-04-05 21:50:10,15.08851473,6.37e-05,53.2161,309.2172,81.9607,278.1458,0.00021066,3.068e-05,0.0,0 STARLINK-4091,1 52830U 22062A   24096.90984586  .00003068  00000-0  21066-3 0  9995,2 52830  53.2161 309.2172 0000637  81.9607 278.1458 15.08851473 99688,6917.845,95.437,540.151,539.27,0.0
52830.0,STARLINK-4091,PAYLOAD,2024-04-05 23:25:33,15.08853237,6.42e-05,53.216,308.9197,81.674,278.4325,0.00023352,3.432e-05,0.0,0 STARLINK-4091,1 52830U 22062A   24096.97608471  .00003432  00000-0  23352-3 0  9993,2 52830  53.2160 308.9197 0000642  81.6740 278.4325 15.08853237100208,6917.84,95.437,540.149,539.261,0.0
52830.0,STARLINK-4091,PAYLOAD,2024-04-06 07:22:29,15.08846065,7.2e-05,53.2166,307.4325,82.8325,277.2749,0.00011959,1.616e-05,0.0,0 STARLINK-4091,1 52830U 22062A   24097.30728751  .00001616  00000-0  11959-3 0  9997,2 52830  53.2166 307.4325 0000720  82.8325 277.2749 15.08846065100253,6917.862,95.437,540.225,539.229,0.0
52830.0,STARLINK-4091,PAYLOAD,2024-04-06 20:05:34,15.08842418,7.89e-05,53.2156,305.0545,84.7698,275.3384,8.8074e-05,1.114e-05,0.0,0 STARLINK-4091,1 52830U 22062A   24097.83720987  .00001114  00000-0  88074-4 0  9994,2 52830  53.2156 305.0545 0000789  84.7698 275.3384 15.08842418 99821,6917.873,95.437,540.284,539.192,0.0
52830.0,STARLINK-4091,PAYLOAD,2024-04-07 13:34:49,15.08838423,6.12e-05,53.216,301.7822,88.8835,271.2227,8.0479e-07,-2.75e-06,0.0,0 STARLINK-4091,1 52830U 22062A   24098.56585227 -.00000275  00000-0  80479-6 0  9992,2 52830  53.2160 301.7822 0000612  88.8835 271.2227 15.08838423 99934,6917.885,95.438,540.174,539.327,0.0
52830.0,STARLINK-4091,PAYLOAD,2024-04-07 19:56:22,15.08838271,6.07e-05,53.2156,300.5932,82.9037,277.2024,2.0805e-05,4.4e-07,0.0,0 STARLINK-4091,1 52830U 22062A   24098.83081285  .00000044  00000-0  20805-4 0  9995,2 52830  53.2156 300.5932 0000607  82.9037 277.2024 15.08838271100486,6917.886,95.438,540.171,539.331,0.0
52830.0,STARLINK-4091,PAYLOAD,2024-04-08 22:57:55,15.08842211,7.81e-05,53.2144,295.5376,77.2478,282.8602,0.0001661,2.357e-05,0.0,0 STARLINK-4091,1 52830U 22062A   24099.95688944  .00002357  00000-0  16610-3 0  9991,2 52830  53.2144 295.5376 0000781  77.2478 282.8602 15.08842211100143,6917.874,95.437,540.279,539.198,0.0
52830.0,STARLINK-4091,PAYLOAD,2024-04-09 19:37:56,15.08842683,0.000107,53.2149,291.6698,88.9703,271.1412,0.00010088,1.318e-05,0.0,0 STARLINK-4091,1 52830U 22062A   24100.81801176  .00001318  00000-0  10088-3 0  9992,2 52830  53.2149 291.6698 0001070  88.9703 271.1412 15.08842683100271,6917.872,95.437,540.477,538.997,0.0
52830.0,STARLINK-4091,PAYLOAD,2024-04-10 05:10:15,15.08839584,7.11e-05,53.2169,289.8874,79.4477,280.6595,2.392e-05,9.3e-07,0.0,0 STARLINK-4091,1 52830U 22062A   24101.21545377  .00000093  00000-0  23920-4 0  9994,2 52830  53.2169 289.8874 0000711  79.4477 280.6595 15.08839584100848,6917.882,95.438,540.239,539.255,0.0
52830.0,STARLINK-4091,PAYLOAD,2024-04-10 13:07:11,15.0883303,6.42e-05,53.2157,288.4011,87.7553,272.3513,5.9256e-05,6.55e-06,0.0,0 STARLINK-4091,1 52830U 22062A   24101.54665731  .00000655  00000-0  59256-4 0  9992,2 52830  53.2157 288.4011 0000642  87.7553 272.3513 15.08833030100380,6917.902,95.438,540.211,539.323,0.0
52830.0,STARLINK-4091,PAYLOAD,2024-04-10 19:28:43,15.08834749,6.15e-05,53.2174,287.2123,87.3287,272.7775,7.2235e-05,8.62e-06,0.0,0 STARLINK-4091,1 52830U 22062A   24101.81161656  .00000862  00000-0  72235-4 0  9991,2 52830  53.2174 287.2123 0000615  87.3287 272.7775 15.08834749100427,6917.896,95.438,540.187,539.336,0.0
52830.0,STARLINK-4091,PAYLOAD,2024-04-11 05:01:02,15.08837406,5.69e-05,53.217,285.4281,76.819,283.2866,1.6132e-05,-3.1e-07,0.0,0 STARLINK-4091,1 52830U 22062A   24102.20905775 -.00000031  00000-0  16132-4 0  9996,2 52830  53.2170 285.4281 0000569  76.8190 283.2866 15.08837406100489,6917.888,95.438,540.147,539.36,0.0
52830.0,STARLINK-4091,PAYLOAD,2024-04-11 19:19:30,15.0883791,6.36e-05,53.217,282.7519,85.8086,274.2979,0.00011153,1.488e-05,0.0,0 STARLINK-4091,1 52830U 22062A   24102.80521758  .00001488  00000-0  11153-3 0  9990,2 52830  53.2170 282.7519 0000636  85.8086 274.2979 15.08837910101084,6917.887,95.438,540.192,539.312,0.0
52830.0,STARLINK-4091,PAYLOAD,2024-04-13 19:01:04,15.08847888,6.11e-05,53.2164,273.8296,64.8045,295.301,0.00010749,1.424e-05,0.0,0 STARLINK-4091,1 52830U 22062A   24104.79241411  .00001424  00000-0  10749-3 0  9995,2 52830  53.2164 273.8296 0000611  64.8045 295.3010 15.08847888101383,6917.856,95.437,540.144,539.299,0.0
52830.0,STARLINK-4091,PAYLOAD,2024-04-14 10:54:56,15.08841725,6.19e-05,53.2166,270.8565,76.4111,283.695,6.6435e-05,7.7e-06,0.0,0 STARLINK-4091,1 52830U 22062A   24105.45481815  .00000770  00000-0  66435-4 0  9990,2 52830  53.2166 270.8565 0000619  76.4111 283.6950 15.08841725101480,6917.875,95.437,540.168,539.312,0.0
52830.0,STARLINK-4091,PAYLOAD,2024-04-14 17:16:28,15.08846698,0.0001184,53.2168,269.6673,41.4183,318.6898,8.2596e-05,1.027e-05,0.0,0 STARLINK-4091,1 52830U 22062A   24105.71977837  .00001027  00000-0  82596-4 0  9995,2 52830  53.2168 269.6673 0001184  41.4183 318.6898 15.08846698101010,6917.86,95.437,540.544,538.906,0.0
52830.0,STARLINK-4091,PAYLOAD,2024-04-15 13:56:29,15.08843765,8.35e-05,53.2152,265.8011,64.6408,295.4671,0.00022055,3.224e-05,0.0,0 STARLINK-4091,1 52830U 22062A   24106.58089686  .00003224  00000-0  22055-3 0  9991,2 52830  53.2152 265.8011 0000835  64.6408 295.4671 15.08843765101143,6917.869,95.437,540.312,539.156,0.0
52830.0,STARLINK-4091,PAYLOAD,2024-04-15 17:07:15,15.08852626,8.11e-05,53.2162,265.205,81.8798,278.2286,0.00017033,2.425e-05,0.0,0 STARLINK-4091,1 52830U 22062A   24106.71337163  .00002425  00000-0  17033-3 0  9994,2 52830  53.2162 265.2050 0000811  81.8798 278.2286 15.08852626101673,6917.842,95.437,540.268,539.146,0.0
52830.0,STARLINK-4091,PAYLOAD,2024-04-16 13:47:16,15.08844774,7.02e-05,53.2158,261.3396,57.3376,302.7684,0.00012677,1.731e-05,0.0,0 STARLINK-4091,1 52830U 22062A   24107.57449576  .00001731  00000-0  12677-3 0  9999,2 52830  53.2158 261.3396 0000702  57.3376 302.7684 15.08844774101802,6917.866,95.437,540.216,539.245,0.0
